BEIDOU 3 (C01)          
1 36287U 10001A   21048.50813457 -.00000281  00000-0  00000-0 0  9998
2 36287   1.6986  41.2344 0002772 101.1830 328.6212  1.00271747 40667
BEIDOU 5 (C06)          
1 36828U 10036A   21048.54716045 -.00000121  00000-0  00000-0 0  9999
2 36828  54.1766 180.7079 0107036 234.1203  45.5846  1.00298883 38701
BEIDOU 6 (C04)          
1 37210U 10057A   21048.66139668 -.00000112  00000-0  00000-0 0  9991
2 37210   0.9310  53.0141 0004378 193.7809 299.1951  1.00271283 37775
BEIDOU 7 (C07)          
1 37256U 10068A   21048.32034956 -.00000196  00000-0  00000-0 0  9992
2 37256  51.0650 295.4268 0081977 216.3544 228.7957  1.00295098 37290
BEIDOU 8 (C08)          
1 37384U 11013A   21048.64307197 -.00000168  00000-0  00000-0 0  9999
2 37384  59.6117  59.1078 0054866 207.1709 232.0255  1.00287376 36160
BEIDOU 9 (C09)          
1 37763U 11038A   21048.54496271 -.00000058  00000-0  00000-0 0  9996
2 37763  54.4629 183.1333 0077701 223.7681  30.6531  1.00289616 35134
BEIDOU 10 (C10)         
1 37948U 11073A   21048.14424343 -.00000138  00000-0  00000-0 0  9996
2 37948  51.1663 295.0409 0069374 215.4235 144.6665  1.00280177 33896
BEIDOU 11 (C05)         
1 38091U 12008A   21048.60549256  .00000054  00000-0  00000-0 0  9993
2 38091   2.0012  71.7517 0003694 259.5454  93.2685  1.00276709 32967
BEIDOU 12 (C11)         
1 38250U 12018A   21048.27341226 -.00000092  00000-0  00000-0 0  9994
2 38250  56.7566   9.5799 0023875 251.4909 107.1386  1.86234229 60042
BEIDOU 13 (C12)         
1 38251U 12018B   21048.48309157 -.00000092  00000-0  00000-0 0  9995
2 38251  56.6796   8.9289 0014816 257.2401 286.4113  1.86234055 60057
BEIDOU 15 (C14)         
1 38775U 12050B   21048.34681255 -.00000024  00000-0  00000-0 0  9994
2 38775  55.1540 128.0335 0013799 317.5136 332.1358  1.86232243 57423
BEIDOU 16 (C02)         
1 38953U 12059A   21048.60611066 -.00000177  00000-0  00000-0 0  9992
2 38953   1.6830  84.9320 0009232 266.3265  98.7042  1.00274861 30541
BEIDOU 17 (C31)         
1 40549U 15019A   21047.84927337 -.00000169  00000-0  00000-0 0  9992
2 40549  52.6847 318.3842 0036371 188.7678  40.0384  1.00292188 21564
BEIDOU 18 (C57)         
1 40748U 15037A   21048.15211273 -.00000095  00000-0  00000-0 0  9991
2 40748  55.9450   8.0990 0005128 337.4867 254.2976  1.86233332 37874
BEIDOU 19 (C58)         
1 40749U 15037B   21048.39187655 -.00000094  00000-0  00000-0 0  9993
2 40749  55.9484   8.0781 0007269 310.3318 218.8258  1.86232179 37876
BEIDOU 20 (C18)         
1 40938U 15053A   21048.01664360 -.00000105  00000-0  00000-0 0  9996
2 40938  52.2467 281.4379 0046025 190.5272 136.8439  1.00263782 19844
BEIDOU IGSO-6 (C13)     
1 41434U 16021A   21048.49283492 -.00000127  00000-0  00000-0 0  9993
2 41434  57.3886  57.9043 0041104 215.7906 145.5866  1.00293265 17970
BEIDOU-2 G7 (C03)       
1 41586U 16037A   21048.56803226 -.00000355  00000-0  00000-0 0  9992
2 41586   2.0031  69.8251 0009157 359.8768  33.0421  1.00269184 17283
BEIDOU-3 M1 (C19)       
1 43001U 17069A   21047.84195365 -.00000021  00000-0  00000-0 0  9990
2 43001  55.3098 127.9872 0009636 284.3906 183.1206  1.86231675 22354
BEIDOU-3 M2 (C20)       
1 43002U 17069B   21048.61253582 -.00000025  00000-0  00000-0 0  9997
2 43002  55.3083 127.9960 0008015 307.0749   0.6887  1.86231433 22355
BEIDOU-3 M3 (C27)       
1 43107U 18003A   21048.28764525 -.00000095  00000-0  00000-0 0  9996
2 43107  55.3851   9.2292 0004375  24.6935 231.1183  1.86232435 21114
BEIDOU-3 M4 (C28)       
1 43108U 18003B   21048.63024738 -.00000094  00000-0  00000-0 0  9990
2 43108  55.3790   9.2087 0004159 260.7035 269.9890  1.86232426 21128
BEIDOU-3 M5 (C21)       
1 43207U 18018A   21048.28613131 -.00000023  00000-0  00000-0 0  9990
2 43207  55.2669 128.1016 0005949 325.1301  34.8812  1.86231670 20509
BEIDOU-3 M6 (C22)       
1 43208U 18018B   21048.35284460 -.00000024  00000-0  00000-0 0  9999
2 43208  55.2665 128.1042 0008357 294.8265  65.1368  1.86231842 20506
BEIDOU-3 M7 (C29)       
1 43245U 18029A   21048.41738435 -.00000096  00000-0  00000-0 0  9994
2 43245  55.3210   7.0208 0001695 308.3618 304.5709  1.86232559 19653
BEIDOU-3 M8 (C30)       
1 43246U 18029B   21048.35572235 -.00000096  00000-0  10000-3 0  9996
2 43246  55.3186   7.0551 0005280 335.8153 281.8668  1.86232731 19642
BEIDOU IGSO-7 (C16)     
1 43539U 18057A   21048.54686066 -.00000115  00000-0  00000-0 0  9999
2 43539  55.0560 180.0311 0032009 212.6704  63.7480  1.00249750  9642
BEIDOU-3 M9 (C23)       
1 43581U 18062A   21048.62358803  .00000051  00000-0  00000-0 0  9994
2 43581  54.4521 248.7102 0002439 318.6074 328.4655  1.86231746 17396
BEIDOU-3 M10 (C24)      
1 43582U 18062B   21048.59972961  .00000051  00000-0  00000-0 0  9998
2 43582  54.4506 248.7003 0006511  14.6918 347.6370  1.86232109 17408
BEIDOU-3 M11 (C25)      
1 43602U 18067A   21048.25299825  .00000048  00000-0  00000-0 0  9996
2 43602  54.5271 247.2842 0007547   5.6337 166.6318  1.86231494 16889
BEIDOU-3 M12 (C26)      
1 43603U 18067B   21048.63008852  .00000053  00000-0  00000-0 0  9993
2 43603  54.5223 247.2397 0004726   0.4687 335.1073  1.86231445 16909
BEIDOU-3 M13 (C32)      
1 43622U 18072A   21048.54406145 -.00000025  00000-0  00000-0 0  9997
2 43622  55.2325 127.6666 0006191 279.2672  28.9329  1.86231453 16415
BEIDOU-3 M14 (C33)      
1 43623U 18072B   21048.49361193 -.00000025  00000-0  00000-0 0  9995
2 43623  55.2332 127.6589 0004437 304.3802  60.2279  1.86231408 16428
BEIDOU-3 M15 (C34)      
1 43647U 18078A   21048.17038743 -.00000097  00000-0  10000-3 0  9997
2 43647  55.2143   7.2308 0007502 342.9904  60.1119  1.86232711 15927
BEIDOU-3 M16 (C35)      
1 43648U 18078B   21048.62844501 -.00000096  00000-0  10000-3 0  9994
2 43648  55.2111   7.2238 0005292 350.1583 268.7088  1.86232159 15942
BEIDOU-3 G1 (C59)       
1 43683U 18085A   21048.55188331 -.00000279  00000-0  00000-0 0  9994
2 43683   1.2644 239.9851 0002760  38.9302 207.5180  1.00274240  8551
BEIDOU-3 M17 (C36)      
1 43706U 18093A   21048.35602182  .00000048  00000-0  00000-0 0  9995
2 43706  54.5325 248.5688 0007688 280.3712  52.2690  1.86231749 15280
BEIDOU-3 M18 (C37)      
1 43707U 18093B   21048.30457676  .00000048  00000-0  00000-0 0  9997
2 43707  54.5328 248.5613 0007394 311.1150  77.7762  1.86232009 15298
BEIDOU-3 IGSO-1 (C38)   
1 44204U 19023A   21048.34123082 -.00000191  00000-0  00000-0 0  9999
2 44204  55.8472  58.2231 0017259 204.7539 121.7623  1.00275417  6849
BEIDOU-2 G8             
1 44231U 19027A   21048.61456947 -.00000247  00000-0  00000-0 0  9994
2 44231   0.4494 314.2798 0007259 269.2891 289.9071  1.00277005  6577
BEIDOU-3 IGSO-2 (C39)   
1 44337U 19035A   21048.47627483 -.00000111  00000-0  00000-0 0  9999
2 44337  55.0867 176.0770 0017231 186.6122  63.8209  1.00267465  6186
BEIDOU-3 M23 (C45)      
1 44542U 19061A   21048.60257682  .00000052  00000-0  10000-3 0  9998
2 44542  54.7596 248.6086 0008521 344.9429 197.1934  1.86231285  9551
BEIDOU-3 M24 (C46)      
1 44543U 19061B   21048.46195340  .00000050  00000-0  10000-3 0  9993
2 44543  54.7550 248.5831 0005617 342.7253  15.8186  1.86231682  9559
BEIDOU-3 IGSO-3         
1 44709U 19073A   21047.94168931 -.00000156  00000-0  00000+0 0  9991
2 44709  58.0273 301.3972 0018773 193.0010  98.5344  1.00261333  4934
BEIDOU-3 M21            
1 44793U 19078A   21048.31932198 -.00000097  00000-0  10000-3 0  9994
2 44793  55.0627   7.3053 0007315 350.5861 106.9665  1.86232241  8411
BEIDOU-3 M22            
1 44794U 19078B   21048.03868855 -.00000098  00000-0  10000-3 0  9993
2 44794  55.0395   7.3187 0005485 342.1143 198.0346  1.86232762  8403
BEIDOU-3 M19            
1 44864U 19090A   21048.11801459 -.00000022  00000-0  00000-0 0  9994
2 44864  55.1686 127.9163 0015815 262.4450 165.5083  1.86231735  7990
BEIDOU-3 M20            
1 44865U 19090B   21048.34402963 -.00000024  00000-0  00000-0 0  9999
2 44865  55.1690 127.9398 0014678 277.7920  31.6160  1.86231680  7979
BEIDOU-3 G2             
1 45344U 20017A   21048.56192576 -.00000139  00000-0  00000-0 0  9990
2 45344   2.5908 333.4925 0001608  42.6649  53.8761  1.00272685  3757
BEIDOU-3 G3             
1 45807U 20040A   21048.56803226 -.00000352  00000-0  00000-0 0  9998
2 45807   2.5579 298.3578 0009631  16.0390 148.2741  1.00266816  2575
